{
 "generated_at": "2026-06-27T07:50:14Z",
 "sources": [
  {
   "name": "CelesTrak",
   "url": "https://celestrak.org/NORAD/elements/",
   "license": "frei verfügbar; Attribution. Ursprünglich USSPACECOM/Space-Track."
  },
  {
   "name": "GCAT (J. McDowell, planet4589.org)",
   "url": "https://planet4589.org/space/gcat/",
   "license": "CC-BY 4.0"
  }
 ],
 "satellites": [
  {
   "norad": 42988,
   "name": "SKYSAT-C10",
   "intl": "2017-068B",
   "group": "resource",
   "gcat": {
    "class": "B",
    "category": "IMG",
    "owner": "PLABST",
    "state": "US"
   },
   "omm": {
    "OBJECT_NAME": "SKYSAT-C10",
    "OBJECT_ID": "2017-068B",
    "EPOCH": "2026-06-26T22:36:37.665504",
    "MEAN_MOTION": 15.34795431,
    "ECCENTRICITY": 0.00011716,
    "INCLINATION": 97.4508,
    "RA_OF_ASC_NODE": 314.8852,
    "ARG_OF_PERICENTER": 105.0167,
    "MEAN_ANOMALY": 255.1206,
    "EPHEMERIS_TYPE": 0,
    "CLASSIFICATION_TYPE": "U",
    "NORAD_CAT_ID": 42988,
    "ELEMENT_SET_NO": 999,
    "REV_AT_EPOCH": 48385,
    "BSTAR": 0.00028689703,
    "MEAN_MOTION_DOT": 0.00009599,
    "MEAN_MOTION_DDOT": 0
   }
  },
  {
   "norad": 42987,
   "name": "SKYSAT-C11",
   "intl": "2017-068A",
   "group": "resource",
   "gcat": {
    "class": "B",
    "category": "IMG",
    "owner": "PLABST",
    "state": "US"
   },
   "omm": {
    "OBJECT_NAME": "SKYSAT-C11",
    "OBJECT_ID": "2017-068A",
    "EPOCH": "2026-06-26T22:44:25.953504",
    "MEAN_MOTION": 15.58388831,
    "ECCENTRICITY": 0.00004426,
    "INCLINATION": 97.4353,
    "RA_OF_ASC_NODE": 327.2064,
    "ARG_OF_PERICENTER": 133.1203,
    "MEAN_ANOMALY": 227.009,
    "EPHEMERIS_TYPE": 0,
    "CLASSIFICATION_TYPE": "U",
    "NORAD_CAT_ID": 42987,
    "ELEMENT_SET_NO": 999,
    "REV_AT_EPOCH": 48476,
    "BSTAR": 0.00039792414,
    "MEAN_MOTION_DOT": 0.00030201,
    "MEAN_MOTION_DDOT": 0
   }
  },
  {
   "norad": 41773,
   "name": "SKYSAT-C2",
   "intl": "2016-058D",
   "group": "resource",
   "gcat": {
    "class": "B",
    "category": "IMG",
    "owner": "TBELLA",
    "state": "US"
   },
   "omm": {
    "OBJECT_NAME": "SKYSAT-C2",
    "OBJECT_ID": "2016-058D",
    "EPOCH": "2026-06-26T19:08:38.894496",
    "MEAN_MOTION": 15.42281363,
    "ECCENTRICITY": 0.00038101,
    "INCLINATION": 97.0166,
    "RA_OF_ASC_NODE": 199.5314,
    "ARG_OF_PERICENTER": 49.7628,
    "MEAN_ANOMALY": 310.3953,
    "EPHEMERIS_TYPE": 0,
    "CLASSIFICATION_TYPE": "U",
    "NORAD_CAT_ID": 41773,
    "ELEMENT_SET_NO": 999,
    "REV_AT_EPOCH": 54653,
    "BSTAR": 0.00029931382,
    "MEAN_MOTION_DOT": 0.00012805,
    "MEAN_MOTION_DDOT": 0
   }
  },
  {
   "norad": 41774,
   "name": "SKYSAT-C3",
   "intl": "2016-058E",
   "group": "resource",
   "gcat": {
    "class": "B",
    "category": "IMG",
    "owner": "TBELLA",
    "state": "US"
   },
   "omm": {
    "OBJECT_NAME": "SKYSAT-C3",
    "OBJECT_ID": "2016-058E",
    "EPOCH": "2026-06-25T14:03:43.050816",
    "MEAN_MOTION": 15.52881901,
    "ECCENTRICITY": 0.00012589,
    "INCLINATION": 96.9009,
    "RA_OF_ASC_NODE": 207.1097,
    "ARG_OF_PERICENTER": 117.9292,
    "MEAN_ANOMALY": 242.209,
    "EPHEMERIS_TYPE": 0,
    "CLASSIFICATION_TYPE": "U",
    "NORAD_CAT_ID": 41774,
    "ELEMENT_SET_NO": 999,
    "REV_AT_EPOCH": 54741,
    "BSTAR": 0.00043483814,
    "MEAN_MOTION_DOT": 0.00026959,
    "MEAN_MOTION_DDOT": 0
   }
  },
  {
   "norad": 41771,
   "name": "SKYSAT-C4",
   "intl": "2016-058B",
   "group": "resource",
   "gcat": {
    "class": "B",
    "category": "IMG",
    "owner": "TBELLA",
    "state": "US"
   },
   "omm": {
    "OBJECT_NAME": "SKYSAT-C4",
    "OBJECT_ID": "2016-058B",
    "EPOCH": "2026-06-26T23:01:25.830336",
    "MEAN_MOTION": 15.48886326,
    "ECCENTRICITY": 0.00021104,
    "INCLINATION": 96.9173,
    "RA_OF_ASC_NODE": 199.3227,
    "ARG_OF_PERICENTER": 140.0386,
    "MEAN_ANOMALY": 220.1021,
    "EPHEMERIS_TYPE": 0,
    "CLASSIFICATION_TYPE": "U",
    "NORAD_CAT_ID": 41771,
    "ELEMENT_SET_NO": 999,
    "REV_AT_EPOCH": 54698,
    "BSTAR": 0.0003244694,
    "MEAN_MOTION_DOT": 0.00017417,
    "MEAN_MOTION_DDOT": 0
   }
  },
  {
   "norad": 41772,
   "name": "SKYSAT-C5",
   "intl": "2016-058C",
   "group": "resource",
   "gcat": {
    "class": "B",
    "category": "IMG",
    "owner": "TBELLA",
    "state": "US"
   },
   "omm": {
    "OBJECT_NAME": "SKYSAT-C5",
    "OBJECT_ID": "2016-058C",
    "EPOCH": "2026-06-26T16:33:07.862112",
    "MEAN_MOTION": 15.34598255,
    "ECCENTRICITY": 0.00012105,
    "INCLINATION": 97.0469,
    "RA_OF_ASC_NODE": 217.906,
    "ARG_OF_PERICENTER": 220.243,
    "MEAN_ANOMALY": 139.8725,
    "EPHEMERIS_TYPE": 0,
    "CLASSIFICATION_TYPE": "U",
    "NORAD_CAT_ID": 41772,
    "ELEMENT_SET_NO": 999,
    "REV_AT_EPOCH": 54520,
    "BSTAR": 0.0002249816,
    "MEAN_MOTION_DOT": 0.00007468,
    "MEAN_MOTION_DDOT": 0
   }
  },
  {
   "norad": 42992,
   "name": "SKYSAT-C6",
   "intl": "2017-068F",
   "group": "resource",
   "gcat": {
    "class": "B",
    "category": "IMG",
    "owner": "PLABST",
    "state": "US"
   },
   "omm": {
    "OBJECT_NAME": "SKYSAT-C6",
    "OBJECT_ID": "2017-068F",
    "EPOCH": "2026-06-26T22:19:40.574208",
    "MEAN_MOTION": 15.34124782,
    "ECCENTRICITY": 0.00051855,
    "INCLINATION": 97.4573,
    "RA_OF_ASC_NODE": 315.6327,
    "ARG_OF_PERICENTER": 124.2798,
    "MEAN_ANOMALY": 235.8936,
    "EPHEMERIS_TYPE": 0,
    "CLASSIFICATION_TYPE": "U",
    "NORAD_CAT_ID": 42992,
    "ELEMENT_SET_NO": 999,
    "REV_AT_EPOCH": 48381,
    "BSTAR": 0.00030057176,
    "MEAN_MOTION_DOT": 0.00009852,
    "MEAN_MOTION_DDOT": 0
   }
  },
  {
   "norad": 42991,
   "name": "SKYSAT-C7",
   "intl": "2017-068E",
   "group": "resource",
   "gcat": {
    "class": "B",
    "category": "IMG",
    "owner": "PLABST",
    "state": "US"
   },
   "omm": {
    "OBJECT_NAME": "SKYSAT-C7",
    "OBJECT_ID": "2017-068E",
    "EPOCH": "2026-06-26T22:58:55.279200",
    "MEAN_MOTION": 15.37112392,
    "ECCENTRICITY": 0.00070249,
    "INCLINATION": 97.4536,
    "RA_OF_ASC_NODE": 315.7284,
    "ARG_OF_PERICENTER": 77.9411,
    "MEAN_ANOMALY": 282.262,
    "EPHEMERIS_TYPE": 0,
    "CLASSIFICATION_TYPE": "U",
    "NORAD_CAT_ID": 42991,
    "ELEMENT_SET_NO": 999,
    "REV_AT_EPOCH": 48387,
    "BSTAR": 0.000302746,
    "MEAN_MOTION_DOT": 0.00010925,
    "MEAN_MOTION_DDOT": 0
   }
  },
  {
   "norad": 42990,
   "name": "SKYSAT-C8",
   "intl": "2017-068D",
   "group": "resource",
   "gcat": {
    "class": "B",
    "category": "IMG",
    "owner": "PLABST",
    "state": "US"
   },
   "omm": {
    "OBJECT_NAME": "SKYSAT-C8",
    "OBJECT_ID": "2017-068D",
    "EPOCH": "2026-06-26T21:33:55.712736",
    "MEAN_MOTION": 15.37158309,
    "ECCENTRICITY": 0.00013388,
    "INCLINATION": 97.4528,
    "RA_OF_ASC_NODE": 314.6783,
    "ARG_OF_PERICENTER": 94.5983,
    "MEAN_ANOMALY": 265.5414,
    "EPHEMERIS_TYPE": 0,
    "CLASSIFICATION_TYPE": "U",
    "NORAD_CAT_ID": 42990,
    "ELEMENT_SET_NO": 999,
    "REV_AT_EPOCH": 48380,
    "BSTAR": 0.00029176727,
    "MEAN_MOTION_DOT": 0.00010534,
    "MEAN_MOTION_DDOT": 0
   }
  },
  {
   "norad": 42989,
   "name": "SKYSAT-C9",
   "intl": "2017-068C",
   "group": "resource",
   "gcat": {
    "class": "B",
    "category": "IMG",
    "owner": "PLABST",
    "state": "US"
   },
   "omm": {
    "OBJECT_NAME": "SKYSAT-C9",
    "OBJECT_ID": "2017-068C",
    "EPOCH": "2026-06-26T21:50:33.024480",
    "MEAN_MOTION": 15.41793765,
    "ECCENTRICITY": 0.00095519,
    "INCLINATION": 97.4431,
    "RA_OF_ASC_NODE": 315.8812,
    "ARG_OF_PERICENTER": 102.7101,
    "MEAN_ANOMALY": 257.5214,
    "EPHEMERIS_TYPE": 0,
    "CLASSIFICATION_TYPE": "U",
    "NORAD_CAT_ID": 42989,
    "ELEMENT_SET_NO": 999,
    "REV_AT_EPOCH": 48425,
    "BSTAR": 0.00032569062,
    "MEAN_MOTION_DOT": 0.00013729,
    "MEAN_MOTION_DDOT": 0
   }
  }
 ]
}
